[
  { 
    "type": "Feature",
    "geometry": {
      "type": "Point", 
      "coordinates": [41.921323, -73.951866]
    },
    "properties": {
      "name": "Amtrak train arriving at the platform - Rhinecliff, NY",
      "id": "2024-09-16-amtrak-train-arriving-at-platform-rhinecliff-ny",
      "icon": "museum",
      "description": "<h3>Amtrak train arriving at the platform - Rhinecliff, NY</h3><p>Recorded September 16, 2024 at 1:00 p.m.</p><p>Sony PCM-D100</p>",
      "trackId": "1921561688"
    }
  },
  { 
    "type": "Feature",
    "geometry": {
      "type": "Point", 
      "coordinates": [40.725010, -73.995468]
    },
    "properties": {
      "name": "Ambient music played by street performers in SoHo - New York, NY",
      "id": "2023-09-22-ambient-music-played-by-street-performers-in-soho-new-york-ny",
      "icon": "museum",
      "description": "<h3>Ambient music played by street performers in SoHo - New York, NY</h3><p>Some beautiful music performed by two musicians on a street-corner in SoHo, until they were stopped by the NYPD.</p><p>Recorded September 22, 2023 at 12:15 p.m.</p><p>Sound Devices MixPre 6 II + EM172 Clippys</p>",
      "trackId": "1921131314"
    }
  },
  { 
    "type": "Feature",
    "geometry": {
      "type": "Point", 
      "coordinates": [42.034704, -73.905437]
    },
    "properties": {
      "name": "Canada geese - Tivoli, NY",
      "id": "2024-09-03-canada-geese-tivoli-ny",
      "icon": "bird",
      "description": "<h3>Canada geese - Tivoli, NY</h3><p>Canada geese calling as they fly over Tivoli Bays Wildlife Management Area, Tivoli, NY.</p><p>Recorded September 3, 2024 at 6:20 a.m.</p><p>Zoom F3 + DPA 4060</p>",
      "trackId": "1910225498"
    }
  },
  { 
    "type": "Feature",
    "geometry": {
      "type": "Point", 
      "coordinates": [42.0570125,-73.9178896]
    },
    "properties": {
      "name": "Barred owl duet - Tivoli, NY",
      "id": "2024-08-26-barred-owl-duet-tivoli-ny",
      "icon": "bird",
      "description": "<h3>Barred owl duet - Tivoli, NY</h3><p>Barred owl duet in the forest of the Kaatsbaan Cultural Park, Tivoli, NY.</p><p>Recorded August 26, 2024, 8:30 p.m.</p><p>Zoom F3 + DPA 4060</p>",
      "trackId": "1910810306"
    }
  },
  { 
    "type": "Feature",
    "geometry": {
      "type": "Point", 
      "coordinates": [41.499538, -73.983012]
    },
    "properties": {
      "name": "Richard Serra, '2000' (2000) - Beacon, NY",
      "id": "2024-08-10-richard-serra-2000-2000-beacon-ny",
      "icon": "museum",
      "description": "<h3>Richard Serra, <em>2000</em> (2000) - Beacon, NY</h3><p>The ambience inside Richard Serra's sculpture <em>2000</em> (2000) at the Dia Art Foundation, Beacon, NY.</p><p>Recorded August 10, 2024.</p><p>Sound Devices MixPre 6 + DPA 4060</p>",
      "trackId": "1914867971"
    }
  },
  { 
    "type": "Feature",
    "geometry": {
      "type": "Point", 
      "coordinates": [42.070036, -73.911976]
    },
    "properties": {
      "name": "Morning chorus on Sengstack Ln - Tivoli, NY",
      "id": "2025-05-02-morning-chorus-sengstack-ln-tivoli-ny",
      "icon": "bird",
      "description": "<h3>Morning chorus on Sengstack Ln — Tivoli, NY</h3><p>Pileated Woodpeckers, Mourning Doves, Northern Cardinals, Grackles, Red-wing Blackbirds, American Robins, and many more species make up the morning chorus during the spring in the northeast.</p><p>Recorded May 2, 2025.</p><p>Sound Devices MixPre 6 + MKH 8040 pair</p>",
      "trackId": "2090089926"
    }
  },
  { 
    "type": "Feature",
    "geometry": {
      "type": "Point", 
      "coordinates": [42.068127, -73.903924]
    },
    "properties": {
      "name": "Small waterfall on Stonybrook Rd, Tivoli, NY",
      "id": "2025-05-02-small-waterfall-stonybrook-rd-tivoli-ny",
      "icon": "bird",
      "description": "<h3>Small waterfall on Stonybrook Rd, Tivoli, NY</h3><p>Recorded May 2, 2025.</p><p>Sound Devices MixPre 6 + MKH 8040 pair</p>",
      "trackId": "2090090781"
    }
  },
  { 
    "type": "Feature",
    "geometry": {
      "type": "Point", 
      "coordinates": [42.057646, -73.908640]
    },
    "properties": {
      "name": "Steady rain on Washburn Ave, Tivoli, NY",
      "id": "2025-05-04-steady-rain-washburn-ave-tivoli-ny",
      "icon": "bird",
      "description": "<h3>Steady rain on Washburn Ave, Tivoli, NY</h3><p>Recorded May 4, 2025.</p><p>Sound Devices MixPre 6 II + MKH 8020 pair</p>",
      "trackId": "2090098962"
    }
  },
  { 
    "type": "Feature",
    "geometry": {
      "type": "Point", 
      "coordinates": [42.058634, -73.916979]
    },
    "properties": {
      "name": "Gray Catbird song - Tivoli, NY",
      "id": "2025-05-05-gray-catbird-song-tivoli-ny",
      "icon": "bird",
      "description": "<h3>Gray Catbird song - Tivoli, NY</h3><p>Recorded May 4, 2025.</p><p>Sennheiser MKH 8040 pair (ORTF) + Sound Devices MixPre 6 II</p>",
      "trackId": "2090807259"
    }
  },
  { 
    "type": "Feature",
    "geometry": {
      "type": "Point", 
      "coordinates": [42.054622, -73.915023]
    },
    "properties": {
      "name": "Running stream with morning birds, Kaatsbaan Cultural Park, Tivoli, NY",
      "id": "2025-05-05-running-stream-morning-birds-kaatsbaan-cultural-park-tivoli-ny",
      "icon": "bird",
      "description": "<h3>Running stream with morning birds, Kaatsbaan Cultural Park, Tivoli, NY</h3><p>Recorded May 4, 2025.</p><p>Sennheiser MKH 8040 pair (ORTF) + Sound Devices MixPre 6 II</p>",
      "trackId": "2090807514"
    }
  },
  { 
    "type": "Feature",
    "geometry": {
      "type": "Point", 
      "coordinates": [42.058055, -73.916748]
    },
    "properties": {
      "name": "Running stream in Kaatsbaan Cultural Park, Tivoli, NY",
      "id": "2025-05-05-running-stream-kaatsbaan-cultural-park-tivoli-ny",
      "icon": "bird",
      "description": "<h3>Running stream in Kaatsbaan Cultural Park, Tivoli, NY</h3><p>Recorded May 4, 2025.</p><p>Sennheiser MKH 8040 pair (ORTF) + Sound Devices MixPre 6 II</p>",
      "trackId": "2090807976"
    }
  }
]